NSAT 110
1 26559U 00060A   09006.63354028 -.00000331  00000-0  10000-3 0  4806
2 26559   0.0383 241.9070 0001479  90.5368 112.0232  1.00269573 30252
AMC-6 (GE-6)
1 26580U 00067A   09004.27011998 -.00000236  00000-0  10000-3 0  3590
2 26580   0.0041 231.4731 0002021  64.2783 193.4854  1.00270214 30086
INTELSAT 12 (IS-12)
1 26590U 00068A   09004.76623840  .00000159  00000-0  10000-3 0  2100
2 26590   0.0059   7.6646 0002101 255.8265 161.8667  1.00274521 30015
BEIDOU 1A
1 26599U 00069A   09005.13833025 -.00000259  00000-0  10000-3 0  2045
2 26599   0.8371  82.2632 0004274 219.2763 353.0440  1.00270331 30056
INTELSAT 1R (IS-1R)
1 26608U 00072A   09004.70569096 -.00000251  00000-0  10000-3 0    35
2 26608   0.0081 220.3163 0000387  70.9843  22.1702  1.00269732 29857
ANIK F1
1 26624U 00076A   09005.21816587 -.00000052  00000-0  10000-3 0  4150
2 26624   0.0028 155.3758 0001826 145.5818 135.2314  1.00272471 29841
ASTRA 2D
1 26638U 00081A   09006.00000000  .00000171  00000-0  00000+0 0  7085
2 26638   0.0810 230.7080 0004012 359.5220 263.6910  1.00270716 29562
AMC-8 (GE-8)
1 26639U 00081B   09006.41077844  .00000124  00000-0  10000-3 0  3451
2 26639   0.0275  53.9669 0003266 236.6142 184.4205  1.00273720 29536
BEIDOU 1B
1 26643U 00082A   09006.60986441 -.00000122  00000-0  10000-3 0  2717
2 26643   1.6091  79.3936 0005136 195.4020 131.4277  1.00271366 29511
TURKSAT 2A
1 26666U 01002A   09003.93082882  .00000169  00000-0  10000-3 0  3793
2 26666   0.0425 251.6603 0005233  22.1551 206.9402  1.00272807 29259
SICRAL 1
1 26694U 01005A   09007.06292344  .00000122  00000-0  10000-3 0  3734
2 26694   1.0993  80.7170 0004474 203.2529 221.6313  1.00276438 29040
SKYNET 4F
1 26695U 01005B   09004.70231503 -.00000218  00000-0  10000-3 0  1491
2 26695   3.3180  58.4469 0002632 221.0369  43.7825  1.00268259 28986
EUROBIRD 1
1 26719U 01011A   09004.90101632  .00000173  00000-0  10000-3 0  4320
2 26719   0.0665   0.6136 0003947 276.2573 180.6126  1.00272803 28697
BSAT-2A
1 26720U 01011B   09004.92404247 -.00000328  00000-0  10000-3 0  2895
2 26720   0.0442 270.1511 0002799  91.9010 185.1142  1.00270596 28678
XM-2 (ROCK)
1 26724U 01012A   09007.25645612 -.00000187  00000-0  10000-3 0  5203
2 26724   0.0740 273.3983 0000131 181.9034  18.7187  1.00269601 28681
EKRAN 21
1 26736U 01014A   09006.26275490 -.00000282  00000-0  10000-3 0  4914
2 26736   5.5231  79.5289 0002172 245.3947 334.6727  1.00279217 28469
XM-1 (ROLL)
1 26761U 01018A   09006.09794770 -.00000184  00000-0  10000-3 0  2991
2 26761   0.0851 270.8379 0000942 122.2020  22.8876  1.00270963 28144
INTELSAT 10 (IS-10)
1 26766U 01019A   09004.89924457 -.00000002  00000-0  10000-3 0  2944
2 26766   0.0457 104.5237 0002349 125.7891 266.5144  1.00271703 28030
INTELSAT 901 (IS-901)
1 26824U 01024A   09004.17822414 -.00000118  00000-0  00000+0 0  3568
2 26824   0.0079 310.8820 0002877 322.8729 236.3012  1.00270416 27770
ASTRA 2C
1 26853U 01025A   09006.00000000  .00000171  00000-0  00000+0 0  6341
2 26853   0.0400  58.2790 0001602 301.0040 134.6340  1.00273207 27730
ARTEMIS
1 26863U 01029A   09004.85515145  .00000144  00000-0  10000-3 0  6130
2 26863   7.0468  71.4209 0003691 236.9176 125.4691  1.00274193 28519
GOES 12
1 26871U 01031A   09005.21630139 -.00000227  00000-0  10000-3 0  8780
2 26871   0.3926 262.6262 0000540 150.4639  54.9143  1.00276217 27370
COSMOS 2379
1 26892U 01037A   09007.02964505  .00000088  00000-0  10000-3 0  1975
2 26892   4.4480  71.1459 0004142 170.4328 247.2107  1.00268482 26992
INTELSAT 902 (IS-902)
1 26900U 01039A   09004.90589808  .00000055  00000-0  10000-3 0  3268
2 26900   0.0176  42.9335 0003488 251.5527 198.2555  1.00272171 26957
ATLANTIC BIRD 2
1 26927U 01042A   09005.80458579 -.00000045  00000-0  10000-3 0  1629
2 26927   0.0625   6.8199 0004977 265.8408 114.3970  1.00271916 26701
DIRECTV 4S
1 26985U 01052A   09006.54066943 -.00000094  00000-0  00000+0 0  2277
2 26985   0.0352  79.5542 0002026 231.3601 248.8435  1.00272874 26115
INSAT-3C
1 27298U 02002A   09004.85777837 -.00000054  00000-0  10000-3 0  8620
2 27298   0.0560  97.0191 0005487 175.5195 214.8202  1.00272161 25472
ECHOSTAR 7
1 27378U 02006A   09006.53280868  .00000019  00000-0  10000-3 0  2740
2 27378   0.0200 315.1978 0001194 333.8825 250.0804  1.00273579 25181
INTELSAT 904 (IS-904)
1 27380U 02007A   09007.05418457  .00000067  00000-0  10000-3 0  3383
2 27380   0.0103 352.3692 0003763 299.3304 254.5596  1.00272894 25225
TDRS 9
1 27389U 02011A   09005.07605446 -.00000252  00000-0  10000-3 0  3201
2 27389   2.7106 239.7884 0004301  50.1946 140.1753  1.00271308 26541
JCSAT 8
1 27399U 02015A   09004.59124586 -.00000142  00000-0  10000-3 0  1614
2 27399   0.0098 312.9048 0001909 328.1849 190.0957  1.00271682 24868
ASTRA 3A
1 27400U 02015B   09006.00000000  .00000158  00000-0  00000+0 0  1957
2 27400   0.0720 254.2560 0004202  15.8830 219.0360  1.00274279 24886
INTELSAT 903 (IS-903)
1 27403U 02016A   09003.29994045 -.00000216  00000-0  10000-3 0  1625
2 27403   0.0318  41.4519 0004189 238.6571 256.4241  1.00271308 24842
NSS-7
1 27414U 02019A   09004.73958413 -.00000145  00000-0  10000-3 0  2878
2 27414   0.0453 171.6760 0002319 106.5015  70.5380  1.00271091 24687
DIRECTV 5 (TEMPO 1)
1 27426U 02023A   09005.23232723 -.00000034  00000-0  10000-3 0  2384
2 27426   0.0261  89.0708 0002978 190.1976 159.2175  1.00272582 24444
INTELSAT 905 (IS-905)
1 27438U 02027A   09004.69723088 -.00000161  00000-0  00000+0 0   305
2 27438   0.0259 293.5159 0003375   5.8458  31.5745  1.00271650 24175
EXPRESS 4A
1 27441U 02029A   09007.07814281 -.00000094  00000-0  10000-3 0  1291
2 27441   0.0095 353.6352 0002959 170.7128 316.5102  1.00270441 24106
GALAXY 3C (G-3C)
1 27445U 02030A   09004.19888131 -.00000128  00000-0  00000+0 0  9754
2 27445   0.0261 178.2778 0000132 204.9568  57.2734  1.00270951 24057
ATLANTIC BIRD 3
1 27460U 02035A   09005.75621869 -.00000021  00000-0  10000-3 0   750
2 27460   0.0319 319.2319 0003498 319.9288  93.5376  1.00271997 23864
N-STAR C
1 27461U 02035B   09003.51049806 -.00000284  00000-0  10000-3 0  9095
2 27461   0.0541  99.8401 0003795 167.2868 155.9142  1.00269461 23848
HOT BIRD 6
1 27499U 02038A   09004.85361304  .00000110  00000-0  10000-3 0  5067
2 27499   0.0267 310.2175 0004398 320.6939 153.9773  1.00273502 23362
ECHOSTAR 8
1 27501U 02039A   09006.09062657 -.00000221  00000-0  10000-3 0  3342
2 27501   0.0033 270.4209 0002002  55.5952  95.4179  1.00270955 23393
ATLANTIC BIRD 1
1 27508U 02040A   09005.84478082 -.00000079  00000-0  10000-3 0  1738
2 27508   0.0604 172.8459 0002217 184.7178  39.5892  1.00270762 23374
METEOSAT-8 (MSG-1)
1 27509U 02040B   09004.93110404  .00000088  00000-0  10000-3 0   816
2 27509   0.4539 352.4911 0001481 247.5857 209.3227  1.00279542 23362
INTELSAT 906 (IS-906)
1 27513U 02041A   09004.91141405  .00000037  00000-0  10000-3 0  1203
2 27513   0.0116  17.8641 0002897 273.4657 205.5506  1.00271701 23237
KODAMA (DRTS)
1 27516U 02042B   09004.92464895 -.00000212  00000-0  10000-3 0   765
2 27516   0.0610 269.6397 0002773 327.2148 291.4127  1.00269385 23205
KALPANA-1 (METSAT 1)
1 27525U 02043A   09004.85777785 -.00000054  00000-0  10000-3 0  7360
2 27525   0.0352  83.6485 0000776 353.9536  49.7580  1.00271552 23169
HISPASAT 1D
1 27528U 02044A   09005.87403425 -.00000195  00000-0  10000-3 0    82
2 27528   0.0484  19.4200 0005360 236.9666 133.8125  1.00268610 23103
EUTELSAT W5
1 27554U 02051A   09004.86055139 -.00000020  00000-0  10000-3 0   348
2 27554   0.0218  13.9952 0002926 274.4677 196.4143  1.00268581 22486
TDRS 10
1 27566U 02055A   09003.30641823 -.00000240  00000-0  10000-3 0   337
2 27566   1.4954 279.2571 0002938 355.8198 257.4227  1.00267079 22358
NSS-6
1 27603U 02057A   09004.92703157 -.00000246  00000-0  10000-3 0  8748
2 27603   0.0206 194.3468 0003268  79.0817 259.9585  1.00267412 22228
NIMIQ 2
1 27632U 02062A   09006.07918466 -.00000152  00000-0  10000-3 0  9720
2 27632   0.0229  40.7830 0002685 269.3971  92.8387  1.00270301 22099
INTELSAT 907 (IS-907)
1 27683U 03007A   09004.69452133 -.00000180  00000-0  10000-3 0  7310
2 27683   0.0073 349.3604 0003748 312.5410  25.0432  1.00270896 21580
INSAT-3A
1 27714U 03013A   09006.75527914 -.00000239  00000-0  10000-3 0  4278
2 27714   0.0947  81.7083 0000361  23.8717   6.2724  1.00270067 21083
GALAXY 12 (G-12)
1 27715U 03013B   09006.53806089  .00000044  00000-0  10000-3 0   390
2 27715   0.0177  29.4226 0002351 230.5334 277.0759  1.00272571 21123
ASIASAT 4
1 27718U 03014A   09006.18775110 -.00000339  00000-0  10000-3 0  9572
2 27718   0.0151  79.4519 0000253 176.8756  39.3858  1.00273976 21058
COSMOS 2397
1 27775U 03015A   09003.76294996  .00000068  00000-0  10000-3 0   462
2 27775   2.9872  73.5658 0048720 196.5181 163.0815  1.00488224 20908
GSAT-2
1 27807U 03018A   09004.94339492  .00000147  00000-0  10000-3 0  9224
2 27807   0.0544  93.5646 0003350 182.2019 216.5064  1.00271041 20783
HELLAS-SAT 2
1 27811U 03020A   09004.82285719  .00000175  00000-0  10000-3 0  8670
2 27811   0.0245 251.5951 0002943  24.9387 163.2277  1.00273354 20590
BEIDOU 1C
1 27813U 03021A   09006.63145819 -.00000332  00000-0  10000-3 0  6742
2 27813   0.1717 217.8515 0003513 346.8036 239.5103  1.00267454 20633
AMC-9 (GE-12)
1 27820U 03024A   09007.07661259 -.00000198  00000-0  10000-3 0  8622
2 27820   0.0356 165.9717 0002913 110.0783 135.3008  1.00270912 20493
THURAYA-2
1 27825U 03026A   09004.72283616  .00000156  00000-0  10000-3 0  4130
2 27825   2.9639 337.6115 0005206 298.0222 133.0824  1.00273512 20463
BSAT-2C
1 27830U 03028A   09004.92404340 -.00000328  00000-0  10000-3 0  9653
2 27830   0.0716 250.1625 0004233 356.8755 300.1588  1.00270898 20437
OPTUS C1
1 27831U 03028B   09006.49137957 -.00000127  00000-0  00000+0 0   366
2 27831   0.0377 178.5375 0003105 103.1789 157.3701  1.00270713 20449
RAINBOW 1
1 27852U 03033A   09005.24742358 -.00000259  00000-0  00000+0 0  8896
2 27852   0.0259  18.6740 0001655 313.9521 159.7689  1.00270112 20099
